{
  "type": "FeatureCollection",
  "features": [
    {
      "type": "Feature",
      "properties": {
        "norad_id": 66808,
        "name": "STARLINK-36071",
        "group": "last-30-days",
        "lat": 39.65456418188107,
        "lon": -86.01561169682081,
        "alt_km": 362.37796781533507,
        "timestamp": "2025-12-19T10:49:59.923126+00:00",
        "meta_object_name": "STARLINK-36071",
        "meta_object_id": "2025-278T",
        "meta_epoch": "2025-12-19T00:00:02.000160",
        "meta_mean_motion": 15.68849761,
        "meta_eccentricity": 0.00016925,
        "meta_inclination": 42.9994,
        "meta_ra_of_asc_node": 213.8808,
        "meta_arg_of_pericenter": 272.9595,
        "meta_mean_anomaly": 125.6402,
        "meta_ephemeris_type": 0,
        "meta_classification_type": "U",
        "meta_norad_cat_id": 66808,
        "meta_element_set_no": 999,
        "meta_rev_at_epoch": 396,
        "meta_bstar": -0.018028948,
        "meta_mean_motion_dot": -0.01890464,
        "meta_mean_motion_ddot": 0,
        "tle_line1": "1 66808U 25278T   25353.00002315 -.01890464  00000+0 -18029-1 0  9995",
        "tle_line2": "2 66808  42.9994 213.8808 0001692 272.9595 125.6402 15.68849761  3967"
      },
      "geometry": {
        "type": "Point",
        "coordinates": [
          -86.01561169682081,
          39.65456418188107
        ]
      }
    },
    {
      "type": "Feature",
      "properties": {
        "norad_id": 66809,
        "name": "STARLINK-35979",
        "group": "last-30-days",
        "lat": 41.224030427970305,
        "lon": -78.74419342754746,
        "alt_km": 362.2650541008079,
        "timestamp": "2025-12-19T10:49:59.923136+00:00",
        "meta_object_name": "STARLINK-35979",
        "meta_object_id": "2025-278U",
        "meta_epoch": "2025-12-19T00:00:02.000160",
        "meta_mean_motion": 15.68816294,
        "meta_eccentricity": 0.00018181,
        "meta_inclination": 42.9992,
        "meta_ra_of_asc_node": 213.8654,
        "meta_arg_of_pericenter": 277.8804,
        "meta_mean_anomaly": 126.5141,
        "meta_ephemeris_type": 0,
        "meta_classification_type": "U",
        "meta_norad_cat_id": 66809,
        "meta_element_set_no": 999,
        "meta_rev_at_epoch": 396,
        "meta_bstar": -0.017896204,
        "meta_mean_motion_dot": -0.01875866,
        "meta_mean_motion_ddot": 0,
        "tle_line1": "1 66809U 25278U   25353.00002315 -.01875866  00000+0 -17896-1 0  9996",
        "tle_line2": "2 66809  42.9992 213.8654 0001818 277.8804 126.5141 15.68816294  3967"
      },
      "geometry": {
        "type": "Point",
        "coordinates": [
          -78.74419342754746,
          41.224030427970305
        ]
      }
    },
    {
      "type": "Feature",
      "properties": {
        "norad_id": 66810,
        "name": "STARLINK-36046",
        "group": "last-30-days",
        "lat": 40.22838757716703,
        "lon": -83.62945559087933,
        "alt_km": 362.2341212598367,
        "timestamp": "2025-12-19T10:49:59.923151+00:00",
        "meta_object_name": "STARLINK-36046",
        "meta_object_id": "2025-278V",
        "meta_epoch": "2025-12-19T00:00:02.000160",
        "meta_mean_motion": 15.68855697,
        "meta_eccentricity": 0.00016434,
        "meta_inclination": 42.9994,
        "meta_ra_of_asc_node": 213.8762,
        "meta_arg_of_pericenter": 276.4524,
        "meta_mean_anomaly": 124.06,
        "meta_ephemeris_type": 0,
        "meta_classification_type": "U",
        "meta_norad_cat_id": 66810,
        "meta_element_set_no": 999,
        "meta_rev_at_epoch": 373,
        "meta_bstar": -0.018082651,
        "meta_mean_motion_dot": -0.0189584,
        "meta_mean_motion_ddot": 0,
        "tle_line1": "1 66810U 25278V   25353.00002315 -.01895840  00000+0 -18083-1 0  9991",
        "tle_line2": "2 66810  42.9994 213.8762 0001643 276.4524 124.0600 15.68855697  3739"
      },
      "geometry": {
        "type": "Point",
        "coordinates": [
          -83.62945559087933,
          40.22838757716703
        ]
      }
    },
    {
      "type": "Feature",
      "properties": {
        "norad_id": 66811,
        "name": "STARLINK-36045",
        "group": "last-30-days",
        "lat": 40.75124495214953,
        "lon": -81.20859451944541,
        "alt_km": 362.1031046405533,
        "timestamp": "2025-12-19T10:49:59.923161+00:00",
        "meta_object_name": "STARLINK-36045",
        "meta_object_id": "2025-278W",
        "meta_epoch": "2025-12-19T00:00:02.000160",
        "meta_mean_motion": 15.68852015,
        "meta_eccentricity": 0.00014779,
        "meta_inclination": 42.9992,
        "meta_ra_of_asc_node": 213.871,
        "meta_arg_of_pericenter": 273.5084,
        "meta_mean_anomaly": 128.9247,
        "meta_ephemeris_type": 0,
        "meta_classification_type": "U",
        "meta_norad_cat_id": 66811,
        "meta_element_set_no": 999,
        "meta_rev_at_epoch": 396,
        "meta_bstar": -0.018048869,
        "meta_mean_motion_dot": -0.01892318,
        "meta_mean_motion_ddot": 0,
        "tle_line1": "1 66811U 25278W   25353.00002315 -.01892318  00000+0 -18049-1 0  9991",
        "tle_line2": "2 66811  42.9992 213.8710 0001477 273.5084 128.9247 15.68852015  3961"
      },
      "geometry": {
        "type": "Point",
        "coordinates": [
          -81.20859451944541,
          40.75124495214953
        ]
      }
    },
    {
      "type": "Feature",
      "properties": {
        "norad_id": 66812,
        "name": "STARLINK-36054",
        "group": "last-30-days",
        "lat": 41.641919741543035,
        "lon": -76.25529678754955,
        "alt_km": 362.03779499224675,
        "timestamp": "2025-12-19T10:49:59.923171+00:00",
        "meta_object_name": "STARLINK-36054",
        "meta_object_id": "2025-278X",
        "meta_epoch": "2025-12-19T00:00:02.000160",
        "meta_mean_motion": 15.68859701,
        "meta_eccentricity": 0.000156,
        "meta_inclination": 42.9995,
        "meta_ra_of_asc_node": 213.8614,
        "meta_arg_of_pericenter": 275.2317,
        "meta_mean_anomaly": 131.0292,
        "meta_ephemeris_type": 0,
        "meta_classification_type": "U",
        "meta_norad_cat_id": 66812,
        "meta_element_set_no": 999,
        "meta_rev_at_epoch": 396,
        "meta_bstar": -0.018124607,
        "meta_mean_motion_dot": -0.0189996,
        "meta_mean_motion_ddot": 0,
        "tle_line1": "1 66812U 25278X   25353.00002315 -.01899960  00000+0 -18125-1 0  9997",
        "tle_line2": "2 66812  42.9995 213.8614 0001560 275.2317 131.0292 15.68859701  3963"
      },
      "geometry": {
        "type": "Point",
        "coordinates": [
          -76.25529678754955,
          41.641919741543035
        ]
      }
    },
    {
      "type": "Feature",
      "properties": {
        "norad_id": 66813,
        "name": "STARLINK-36042",
        "group": "last-30-days",
        "lat": 42.00487647593492,
        "lon": -73.73177628709257,
        "alt_km": 361.99896331872606,
        "timestamp": "2025-12-19T10:49:59.923181+00:00",
        "meta_object_name": "STARLINK-36042",
        "meta_object_id": "2025-278Y",
        "meta_epoch": "2025-12-19T00:00:02.000160",
        "meta_mean_motion": 15.68862889,
        "meta_eccentricity": 0.00015751,
        "meta_inclination": 42.9987,
        "meta_ra_of_asc_node": 213.8563,
        "meta_arg_of_pericenter": 276.37,
        "meta_mean_anomaly": 131.8051,
        "meta_ephemeris_type": 0,
        "meta_classification_type": "U",
        "meta_norad_cat_id": 66813,
        "meta_element_set_no": 999,
        "meta_rev_at_epoch": 396,
        "meta_bstar": -0.01815997,
        "meta_mean_motion_dot": -0.01903484,
        "meta_mean_motion_ddot": 0,
        "tle_line1": "1 66813U 25278Y   25353.00002315 -.01903484  00000+0 -18160-1 0  9994",
        "tle_line2": "2 66813  42.9987 213.8563 0001575 276.3700 131.8051 15.68862889  3964"
      },
      "geometry": {
        "type": "Point",
        "coordinates": [
          -73.73177628709257,
          42.00487647593492
        ]
      }
    },
    {
      "type": "Feature",
      "properties": {
        "norad_id": 66814,
        "name": "STARLINK-35984",
        "group": "last-30-days",
        "lat": 42.97641784125154,
        "lon": -58.18120659366795,
        "alt_km": 361.92304918732316,
        "timestamp": "2025-12-19T10:49:59.923191+00:00",
        "meta_object_name": "STARLINK-35984",
        "meta_object_id": "2025-278Z",
        "meta_epoch": "2025-12-19T00:00:02.000160",
        "meta_mean_motion": 15.68861093,
        "meta_eccentricity": 0.00015632,
        "meta_inclination": 42.9993,
        "meta_ra_of_asc_node": 213.8262,
        "meta_arg_of_pericenter": 274.0645,
        "meta_mean_anomaly": 145.6147,
        "meta_ephemeris_type": 0,
        "meta_classification_type": "U",
        "meta_norad_cat_id": 66814,
        "meta_element_set_no": 999,
        "meta_rev_at_epoch": 405,
        "meta_bstar": -0.01814094,
        "meta_mean_motion_dot": -0.01901579,
        "meta_mean_motion_ddot": 0,
        "tle_line1": "1 66814U 25278Z   25353.00002315 -.01901579  00000+0 -18141-1 0  9997",
        "tle_line2": "2 66814  42.9993 213.8262 0001563 274.0645 145.6147 15.68861093  4054"
      },
      "geometry": {
        "type": "Point",
        "coordinates": [
          -58.18120659366795,
          42.97641784125154
        ]
      }
    }
  ]
}